*******************************************************************************
Ephemeris / WWW_USER Mon Mar 24 08:46:49 2025 Pasadena, USA      / Horizons    
*******************************************************************************
Target body name: (2018 OG)                       {source: JPL#12}
Center body name: Earth (399)                     {source: DE441}
Center-site name: Mauna Kea
*******************************************************************************
Start time      : A.D. 2018-Dec-22 03:58:00.0000 UT      
Stop  time      : A.D. 2018-Dec-22 16:42:00.0000 UT      
Step-size       : 1 minutes
*******************************************************************************
Target pole/equ : undefined
Target radii    : undefined                                                    
Center geodetic : 204.5278, 19.8260847, 4.21024   {E-lon(deg),Lat(deg),Alt(km)}
Center cylindric: 204.5278, 6006.35451, 2151.0229 {E-lon(deg),Dxy(km),Dz(km)}
Center pole/equ : ITRF93                          {East-longitude positive}
Center radii    : 6378.137, 6378.137, 6356.752 km {Equator_a, b, pole_c}       
Target primary  : Sun
Vis. interferer : MOON (R_eq= 1737.400) km        {source: DE441}
Rel. light bend : Sun                             {source: DE441}
Rel. lght bnd GM: 1.3271E+11 km^3/s^2                                          
Small-body perts: Yes                             {source: SB441-N16}
Atmos refraction: NO (AIRLESS)
RA format       : HMS
Time format     : CAL 
Calendar mode   : Mixed Julian/Gregorian
RTS-only print  : NO       
EOP file        : eop.250321.p250617                                           
EOP coverage    : DATA-BASED 1962-JAN-20 TO 2025-MAR-21. PREDICTS-> 2025-JUN-16
Units conversion: 1 au= 149597870.700 km, c= 299792.458 km/s, 1 day= 86400.0 s 
Table cut-offs 1: Elevation (-90.0deg=NO ),Airmass (>38.000=NO), Daylight (YES)
Table cut-offs 2: Solar elongation (  0.0,180.0=NO ),Local Hour Angle( 0.0=NO )
Table cut-offs 3: RA/DEC angular rate (     0.0=NO )                           
*******************************************************************************
Initial IAU76/J2000 heliocentric ecliptic osculating elements (au, days, deg.):
  EPOCH=  2458389.5 ! 2018-Sep-28.00 (TDB)         Residual RMS= .17662        
   EC= .5817218672922059   QR= .9873203561553971   TP= 2458366.942240702       
   OM= 131.0345430575832   W=  220.7633135105564   IN= 9.123860581277821       
  Equivalent ICRF heliocentric cartesian coordinates (au, au/d):
   X= 9.625437195102586E-01  Y= 3.686106454146055E-01  Z=-5.877845729655690E-03
  VX=-3.555418036941177E-03 VY= 1.979451357965206E-02 VZ= 6.659913004156397E-03
Asteroid physical parameters (km, seconds, rotational period in hours):        
   GM= n.a.                RAD= n.a.               ROTPER= n.a.                
   H= 23.6                 G= .150                 B-V= n.a.                   
                           ALBEDO= n.a.            STYP= n.a.                  
*******************************************************************************
 Date__(UT)__HR:MN     R.A._________(ICRF)_________DEC
******************************************************
$$SOE
 2018-Dec-22 03:58 Cm  05 17 18.739202 +06 49 15.54966
 2018-Dec-22 03:59 Cm  05 17 18.690106 +06 49 16.22218
 2018-Dec-22 04:00 Cm  05 17 18.640995 +06 49 16.89470
 2018-Dec-22 04:01 Cm  05 17 18.591870 +06 49 17.56721
 2018-Dec-22 04:02 Cm  05 17 18.542729 +06 49 18.23971
 2018-Dec-22 04:03 Cm  05 17 18.493574 +06 49 18.91221
 2018-Dec-22 04:04 Cm  05 17 18.444404 +06 49 19.58470
 2018-Dec-22 04:05 Cm  05 17 18.395220 +06 49 20.25718
 2018-Dec-22 04:06 Cm  05 17 18.346020 +06 49 20.92966
 2018-Dec-22 04:07 Cm  05 17 18.296806 +06 49 21.60213
 2018-Dec-22 04:08 Cm  05 17 18.247577 +06 49 22.27459
 2018-Dec-22 04:09 Cm  05 17 18.198334 +06 49 22.94705
 2018-Dec-22 04:10 Cm  05 17 18.149075 +06 49 23.61949
 2018-Dec-22 04:11 Cm  05 17 18.099803 +06 49 24.29193
 2018-Dec-22 04:12 Cm  05 17 18.050515 +06 49 24.96437
 2018-Dec-22 04:13 Nm  05 17 18.001213 +06 49 25.63679
 2018-Dec-22 04:14 Nm  05 17 17.951896 +06 49 26.30921
 2018-Dec-22 04:15 Nm  05 17 17.902564 +06 49 26.98162
 2018-Dec-22 04:16 Nm  05 17 17.853218 +06 49 27.65402
 2018-Dec-22 04:17 Nm  05 17 17.803857 +06 49 28.32641
 2018-Dec-22 04:18 Nm  05 17 17.754482 +06 49 28.99880
 2018-Dec-22 04:19 Nm  05 17 17.705092 +06 49 29.67118
 2018-Dec-22 04:20 Nm  05 17 17.655687 +06 49 30.34354
 2018-Dec-22 04:21 Nm  05 17 17.606268 +06 49 31.01590
 2018-Dec-22 04:22 Nm  05 17 17.556834 +06 49 31.68825
 2018-Dec-22 04:23 Nm  05 17 17.507386 +06 49 32.36059
 2018-Dec-22 04:24 Nm  05 17 17.457923 +06 49 33.03293
 2018-Dec-22 04:25 Nm  05 17 17.408446 +06 49 33.70525
 2018-Dec-22 04:26 Nm  05 17 17.358954 +06 49 34.37756
 2018-Dec-22 04:27 Nm  05 17 17.309448 +06 49 35.04987
 2018-Dec-22 04:28 Nm  05 17 17.259928 +06 49 35.72216
 2018-Dec-22 04:29 Nm  05 17 17.210392 +06 49 36.39445
 2018-Dec-22 04:30 Nm  05 17 17.160843 +06 49 37.06672
 2018-Dec-22 04:31 Nm  05 17 17.111279 +06 49 37.73899
 2018-Dec-22 04:32 Nm  05 17 17.061700 +06 49 38.41124
 2018-Dec-22 04:33 Nm  05 17 17.012108 +06 49 39.08348
 2018-Dec-22 04:34 Nm  05 17 16.962501 +06 49 39.75572
 2018-Dec-22 04:35 Nm  05 17 16.912879 +06 49 40.42794
 2018-Dec-22 04:36 Nm  05 17 16.863243 +06 49 41.10016
 2018-Dec-22 04:37 Nm  05 17 16.813593 +06 49 41.77236
 2018-Dec-22 04:38 Nm  05 17 16.763929 +06 49 42.44455
 2018-Dec-22 04:39 Nm  05 17 16.714250 +06 49 43.11673
 2018-Dec-22 04:40 Am  05 17 16.664557 +06 49 43.78890
 2018-Dec-22 04:41 Am  05 17 16.614850 +06 49 44.46106
 2018-Dec-22 04:42 Am  05 17 16.565129 +06 49 45.13321
 2018-Dec-22 04:43 Am  05 17 16.515393 +06 49 45.80535
 2018-Dec-22 04:44 Am  05 17 16.465644 +06 49 46.47747
 2018-Dec-22 04:45 Am  05 17 16.415880 +06 49 47.14958
 2018-Dec-22 04:46 Am  05 17 16.366102 +06 49 47.82168
 2018-Dec-22 04:47 Am  05 17 16.316310 +06 49 48.49377
 2018-Dec-22 04:48 Am  05 17 16.266503 +06 49 49.16585
 2018-Dec-22 04:49 Am  05 17 16.216683 +06 49 49.83792
 2018-Dec-22 04:50 Am  05 17 16.166849 +06 49 50.50997
 2018-Dec-22 04:51 Am  05 17 16.117000 +06 49 51.18201
 2018-Dec-22 04:52 Am  05 17 16.067138 +06 49 51.85404
 2018-Dec-22 04:53 Am  05 17 16.017262 +06 49 52.52605
 2018-Dec-22 04:54 Am  05 17 15.967371 +06 49 53.19806
 2018-Dec-22 04:55 Am  05 17 15.917467 +06 49 53.87004
 2018-Dec-22 04:56 Am  05 17 15.867549 +06 49 54.54202
 2018-Dec-22 04:57 Am  05 17 15.817617 +06 49 55.21399
 2018-Dec-22 04:58 Am  05 17 15.767671 +06 49 55.88594
 2018-Dec-22 04:59 Am  05 17 15.717712 +06 49 56.55787
 2018-Dec-22 05:00 Am  05 17 15.667738 +06 49 57.22980
 2018-Dec-22 05:01 Am  05 17 15.617751 +06 49 57.90171
 2018-Dec-22 05:02 Am  05 17 15.567750 +06 49 58.57360
 2018-Dec-22 05:03 Am  05 17 15.517735 +06 49 59.24549
 2018-Dec-22 05:04 Am  05 17 15.467707 +06 49 59.91736
 2018-Dec-22 05:05 Am  05 17 15.417664 +06 50 00.58921
 2018-Dec-22 05:06 Am  05 17 15.367609 +06 50 01.26105
 2018-Dec-22 05:07  m  05 17 15.317539 +06 50 01.93288
 2018-Dec-22 05:08  m  05 17 15.267456 +06 50 02.60469
 2018-Dec-22 05:09  m  05 17 15.217360 +06 50 03.27649
 2018-Dec-22 05:10  m  05 17 15.167250 +06 50 03.94827
 2018-Dec-22 05:11  m  05 17 15.117126 +06 50 04.62004
 2018-Dec-22 05:12  m  05 17 15.066989 +06 50 05.29179
 2018-Dec-22 05:13  m  05 17 15.016838 +06 50 05.96353
 2018-Dec-22 05:14  m  05 17 14.966674 +06 50 06.63525
 2018-Dec-22 05:15  m  05 17 14.916497 +06 50 07.30696
 2018-Dec-22 05:16  m  05 17 14.866306 +06 50 07.97865
 2018-Dec-22 05:17  m  05 17 14.816102 +06 50 08.65033
 2018-Dec-22 05:18  m  05 17 14.765884 +06 50 09.32199
 2018-Dec-22 05:19  m  05 17 14.715654 +06 50 09.99364
 2018-Dec-22 05:20  m  05 17 14.665410 +06 50 10.66527
 2018-Dec-22 05:21  m  05 17 14.615153 +06 50 11.33688
 2018-Dec-22 05:22  m  05 17 14.564882 +06 50 12.00848
 2018-Dec-22 05:23  m  05 17 14.514599 +06 50 12.68007
 2018-Dec-22 05:24  m  05 17 14.464302 +06 50 13.35163
 2018-Dec-22 05:25  m  05 17 14.413992 +06 50 14.02318
 2018-Dec-22 05:26  m  05 17 14.363670 +06 50 14.69472
 2018-Dec-22 05:27  m  05 17 14.313334 +06 50 15.36623
 2018-Dec-22 05:28  m  05 17 14.262985 +06 50 16.03773
 2018-Dec-22 05:29  m  05 17 14.212623 +06 50 16.70922
 2018-Dec-22 05:30  m  05 17 14.162249 +06 50 17.38068
 2018-Dec-22 05:31  m  05 17 14.111861 +06 50 18.05213
 2018-Dec-22 05:32  m  05 17 14.061461 +06 50 18.72356
 2018-Dec-22 05:33  m  05 17 14.011047 +06 50 19.39498
 2018-Dec-22 05:34  m  05 17 13.960621 +06 50 20.06638
 2018-Dec-22 05:35  m  05 17 13.910183 +06 50 20.73776
 2018-Dec-22 05:36  m  05 17 13.859731 +06 50 21.40912
 2018-Dec-22 05:37  m  05 17 13.809267 +06 50 22.08047
 2018-Dec-22 05:38  m  05 17 13.758790 +06 50 22.75179
 2018-Dec-22 05:39  m  05 17 13.708301 +06 50 23.42310
 2018-Dec-22 05:40  m  05 17 13.657799 +06 50 24.09440
 2018-Dec-22 05:41  m  05 17 13.607284 +06 50 24.76567
 2018-Dec-22 05:42  m  05 17 13.556757 +06 50 25.43692
 2018-Dec-22 05:43  m  05 17 13.506217 +06 50 26.10816
 2018-Dec-22 05:44  m  05 17 13.455665 +06 50 26.77938
 2018-Dec-22 05:45  m  05 17 13.405101 +06 50 27.45058
 2018-Dec-22 05:46  m  05 17 13.354524 +06 50 28.12176
 2018-Dec-22 05:47  m  05 17 13.303935 +06 50 28.79292
 2018-Dec-22 05:48  m  05 17 13.253334 +06 50 29.46407
 2018-Dec-22 05:49  m  05 17 13.202721 +06 50 30.13519
 2018-Dec-22 05:50  m  05 17 13.152095 +06 50 30.80630
 2018-Dec-22 05:51  m  05 17 13.101457 +06 50 31.47739
 2018-Dec-22 05:52  m  05 17 13.050807 +06 50 32.14845
 2018-Dec-22 05:53  m  05 17 13.000145 +06 50 32.81950
 2018-Dec-22 05:54  m  05 17 12.949471 +06 50 33.49053
 2018-Dec-22 05:55  m  05 17 12.898785 +06 50 34.16154
 2018-Dec-22 05:56  m  05 17 12.848086 +06 50 34.83253
 2018-Dec-22 05:57  m  05 17 12.797376 +06 50 35.50350
 2018-Dec-22 05:58  m  05 17 12.746655 +06 50 36.17445
 2018-Dec-22 05:59  m  05 17 12.695921 +06 50 36.84538
 2018-Dec-22 06:00  m  05 17 12.645175 +06 50 37.51629
